[{"OBJECT_NAME":"STARLINK-1305","OBJECT_ID":"2020-019T","EPOCH":"2026-03-09T10:51:52.813440","MEAN_MOTION":15.52988672,"ECCENTRICITY":0.0002678,"INCLINATION":53.0452,"RA_OF_ASC_NODE":133.4072,"ARG_OF_PERICENTER":91.27,"MEAN_ANOMALY":268.8616,"EPHEMERIS_TYPE":0,"CLASSIFICATION_TYPE":"U","NORAD_CAT_ID":45377,"ELEMENT_SET_NO":999,"REV_AT_EPOCH":33018,"BSTAR":0.0015575307,"MEAN_MOTION_DOT":0.00099582,"MEAN_MOTION_DDOT":0},{"OBJECT_NAME":"JILIN-1 GAOFEN 03D08","OBJECT_ID":"2022-155A","EPOCH":"2026-03-09T23:19:58.131840","MEAN_MOTION":15.549418,"ECCENTRICITY":0.00037458,"INCLINATION":97.6053,"RA_OF_ASC_NODE":207.2887,"ARG_OF_PERICENTER":356.2753,"MEAN_ANOMALY":3.8472,"EPHEMERIS_TYPE":0,"CLASSIFICATION_TYPE":"U","NORAD_CAT_ID":54251,"ELEMENT_SET_NO":999,"REV_AT_EPOCH":18435,"BSTAR":0.00076641112,"MEAN_MOTION_DOT":0.00051434,"MEAN_MOTION_DDOT":0}]
